STARLINK-2512
1 48319U 21036AV  26061.16668981  .01536136  00000+0  81978-1 0  9995
2 48319  53.0762 135.3285 0001546  57.1032  22.2466 15.11807735  5770
STARLINK-2457
1 48321U 21036AX  26061.16668981  .01536921  00000+0  82048-1 0  9999
2 48321  53.0762 135.3419 0001777  72.4172  41.6510 15.11794524  5779
